{
    "week": 295,
    "satellites": [
        {
            "Name": "BEIDOU-2 IGSO-1 (C06)",
            "Line1": "1 36828U 10036A   24341.46901865 -.00000050  00000+0  00000+0 0  9994",
            "Line2": "2 36828  54.2599 168.0040 0043003 205.5311 338.2598  1.00280662 52638",
            "SatelliteNumber": "36828",
            "Classification": "U",
            "LaunchYear": "10",
            "LaunchNumber": "036",
            "PieceOfLaunch": "A",
            "EpochYear": "24",
            "EpochDay": 341.46901865,
            "FirstDerivativeMeanMotion": -5e-07,
            "SecondDerivativeMeanMotion": "00000+0",
            "BSTAR": "00000+0",
            "SetNumber": "999",
            "Inclination": 54.2599,
            "RAAN": 168.004,
            "Eccentricity": 0.0043003,
            "ArgumentOfPerigee": 205.5311,
            "MeanAnomaly": 338.2598,
            "MeanMotion": 1.00280662,
            "RevolutionNumber": "5263"
        },
        {
            "Name": "BEIDOU-2 G4 (C04)",
            "Line1": "1 37210U 10057A   24341.65838969 -.00000095  00000+0  00000+0 0  9997",
            "Line2": "2 37210   2.2637  70.1837 0009483 182.8417 219.9584  1.00271719 51705",
            "SatelliteNumber": "37210",
            "Classification": "U",
            "LaunchYear": "10",
            "LaunchNumber": "057",
            "PieceOfLaunch": "A",
            "EpochYear": "24",
            "EpochDay": 341.65838969,
            "FirstDerivativeMeanMotion": -9.5e-07,
            "SecondDerivativeMeanMotion": "00000+0",
            "BSTAR": "00000+0",
            "SetNumber": "999",
            "Inclination": 2.2637,
            "RAAN": 70.1837,
            "Eccentricity": 0.0009483,
            "ArgumentOfPerigee": 182.8417,
            "MeanAnomaly": 219.9584,
            "MeanMotion": 1.00271719,
            "RevolutionNumber": "5170"
        },
        {
            "Name": "BEIDOU-2 IGSO-2 (C07)",
            "Line1": "1 37256U 10068A   24334.73967046 -.00000205  00000+0  00000+0 0  9992",
            "Line2": "2 37256  48.5771 278.7994 0037686 218.6719 302.5714  1.00250110 51139",
            "SatelliteNumber": "37256",
            "Classification": "U",
            "LaunchYear": "10",
            "LaunchNumber": "068",
            "PieceOfLaunch": "A",
            "EpochYear": "24",
            "EpochDay": 334.73967046,
            "FirstDerivativeMeanMotion": -2.05e-06,
            "SecondDerivativeMeanMotion": "00000+0",
            "BSTAR": "00000+0",
            "SetNumber": "999",
            "Inclination": 48.5771,
            "RAAN": 278.7994,
            "Eccentricity": 0.0037686,
            "ArgumentOfPerigee": 218.6719,
            "MeanAnomaly": 302.5714,
            "MeanMotion": 1.0025011,
            "RevolutionNumber": "5113"
        },
        {
            "Name": "BEIDOU-2 IGSO-3 (C08)",
            "Line1": "1 37384U 11013A   24341.60603662 -.00000181  00000+0  00000+0 0  9993",
            "Line2": "2 37384  61.6038  45.4554 0031419 181.9098 173.7820  1.00265235 50076",
            "SatelliteNumber": "37384",
            "Classification": "U",
            "LaunchYear": "11",
            "LaunchNumber": "013",
            "PieceOfLaunch": "A",
            "EpochYear": "24",
            "EpochDay": 341.60603662,
            "FirstDerivativeMeanMotion": -1.81e-06,
            "SecondDerivativeMeanMotion": "00000+0",
            "BSTAR": "00000+0",
            "SetNumber": "999",
            "Inclination": 61.6038,
            "RAAN": 45.4554,
            "Eccentricity": 0.0031419,
            "ArgumentOfPerigee": 181.9098,
            "MeanAnomaly": 173.782,
            "MeanMotion": 1.00265235,
            "RevolutionNumber": "5007"
        },
        {
            "Name": "BEIDOU-2 IGSO-4 (C09)",
            "Line1": "1 37763U 11038A   24340.99494083  .00000067  00000+0  00000+0 0  9999",
            "Line2": "2 37763  54.5650 170.6585 0130124 228.3947 130.7434  1.00271622 49052",
            "SatelliteNumber": "37763",
            "Classification": "U",
            "LaunchYear": "11",
            "LaunchNumber": "038",
            "PieceOfLaunch": "A",
            "EpochYear": "24",
            "EpochDay": 340.99494083,
            "FirstDerivativeMeanMotion": 6.7e-07,
            "SecondDerivativeMeanMotion": "00000+0",
            "BSTAR": "00000+0",
            "SetNumber": "999",
            "Inclination": 54.565,
            "RAAN": 170.6585,
            "Eccentricity": 0.0130124,
            "ArgumentOfPerigee": 228.3947,
            "MeanAnomaly": 130.7434,
            "MeanMotion": 1.00271622,
            "RevolutionNumber": "4905"
        },
        {
            "Name": "BEIDOU-2 IGSO-5 (C10)",
            "Line1": "1 37948U 11073A   24341.78970030 -.00000160  00000+0  00000+0 0  9997",
            "Line2": "2 37948  48.7002 278.4111 0102728 221.2673 314.2993  1.00293072 47816",
            "SatelliteNumber": "37948",
            "Classification": "U",
            "LaunchYear": "11",
            "LaunchNumber": "073",
            "PieceOfLaunch": "A",
            "EpochYear": "24",
            "EpochDay": 341.7897003,
            "FirstDerivativeMeanMotion": -1.6e-06,
            "SecondDerivativeMeanMotion": "00000+0",
            "BSTAR": "00000+0",
            "SetNumber": "999",
            "Inclination": 48.7002,
            "RAAN": 278.4111,
            "Eccentricity": 0.0102728,
            "ArgumentOfPerigee": 221.2673,
            "MeanAnomaly": 314.2993,
            "MeanMotion": 1.00293072,
            "RevolutionNumber": "4781"
        },
        {
            "Name": "BEIDOU-2 G5 (C05)",
            "Line1": "1 38091U 12008A   24341.83601013  .00000074  00000+0  00000+0 0  9997",
            "Line2": "2 38091   2.1846  70.9869 0011564 225.0280 139.7574  1.00271350 46891",
            "SatelliteNumber": "38091",
            "Classification": "U",
            "LaunchYear": "12",
            "LaunchNumber": "008",
            "PieceOfLaunch": "A",
            "EpochYear": "24",
            "EpochDay": 341.83601013,
            "FirstDerivativeMeanMotion": 7.4e-07,
            "SecondDerivativeMeanMotion": "00000+0",
            "BSTAR": "00000+0",
            "SetNumber": "999",
            "Inclination": 2.1846,
            "RAAN": 70.9869,
            "Eccentricity": 0.0011564,
            "ArgumentOfPerigee": 225.028,
            "MeanAnomaly": 139.7574,
            "MeanMotion": 1.0027135,
            "RevolutionNumber": "4689"
        },
        {
            "Name": "BEIDOU-2 M3 (C11)",
            "Line1": "1 38250U 12018A   24341.29429873 -.00000045  00000+0  00000+0 0  9996",
            "Line2": "2 38250  56.2173 323.6038 0025348 268.1487  91.5648  1.86233513 85904",
            "SatelliteNumber": "38250",
            "Classification": "U",
            "LaunchYear": "12",
            "LaunchNumber": "018",
            "PieceOfLaunch": "A",
            "EpochYear": "24",
            "EpochDay": 341.29429873,
            "FirstDerivativeMeanMotion": -4.5e-07,
            "SecondDerivativeMeanMotion": "00000+0",
            "BSTAR": "00000+0",
            "SetNumber": "999",
            "Inclination": 56.2173,
            "RAAN": 323.6038,
            "Eccentricity": 0.0025348,
            "ArgumentOfPerigee": 268.1487,
            "MeanAnomaly": 91.5648,
            "MeanMotion": 1.86233513,
            "RevolutionNumber": "8590"
        },
        {
            "Name": "BEIDOU-2 M4 (C12)",
            "Line1": "1 38251U 12018B   24341.22487474 -.00000045  00000+0  00000+0 0  9991",
            "Line2": "2 38251  56.1225 322.8645 0016266 271.0879  88.7291  1.86231955 85555",
            "SatelliteNumber": "38251",
            "Classification": "U",
            "LaunchYear": "12",
            "LaunchNumber": "018",
            "PieceOfLaunch": "B",
            "EpochYear": "24",
            "EpochDay": 341.22487474,
            "FirstDerivativeMeanMotion": -4.5e-07,
            "SecondDerivativeMeanMotion": "00000+0",
            "BSTAR": "00000+0",
            "SetNumber": "999",
            "Inclination": 56.1225,
            "RAAN": 322.8645,
            "Eccentricity": 0.0016266,
            "ArgumentOfPerigee": 271.0879,
            "MeanAnomaly": 88.7291,
            "MeanMotion": 1.86231955,
            "RevolutionNumber": "8555"
        },
        {
            "Name": "BEIDOU-2 M6 (C14)",
            "Line1": "1 38775U 12050B   24340.93459329  .00000000  00000+0  00000+0 0  9993",
            "Line2": "2 38775  56.0557  81.4305 0010908 339.3410  20.6217  1.86230856 82919",
            "SatelliteNumber": "38775",
            "Classification": "U",
            "LaunchYear": "12",
            "LaunchNumber": "050",
            "PieceOfLaunch": "B",
            "EpochYear": "24",
            "EpochDay": 340.93459329,
            "FirstDerivativeMeanMotion": 0.0,
            "SecondDerivativeMeanMotion": "00000+0",
            "BSTAR": "00000+0",
            "SetNumber": "999",
            "Inclination": 56.0557,
            "RAAN": 81.4305,
            "Eccentricity": 0.0010908,
            "ArgumentOfPerigee": 339.341,
            "MeanAnomaly": 20.6217,
            "MeanMotion": 1.86230856,
            "RevolutionNumber": "8291"
        }
    ]
}